LUSAT (LO-19)           
1 20442U 90005G   26068.62099839  .00000189  00000+0  84338-4 0  9991
2 20442  98.8938  87.6461 0012340 134.6824 225.5367 14.34087969888127
IRIDIUM 155             
1 43573U 18061E   26068.62118575 -.00000033  00000+0 -18836-4 0  9992
2 43573  86.3914  98.3248 0001980  94.0732 266.0690 14.34217216399081
